ONEWEB-0564             
1 55801U 23029F   25285.18266461 -.00000019  00000+0 -78413-4 0  9999
2 55801  87.9221 323.9324 0001809  83.0573 277.0766 13.20769811128419
ONEWEB-0638             
1 55802U 23029G   25285.17297306 -.00000122  00000+0 -36422-3 0  9999
2 55802  87.9047 339.1731 0001389  89.4860 270.6428 13.14503804126816
ONEWEB-0639             
1 55803U 23029H   25285.26262569 -.00000100  00000+0 -28187-3 0  9998
2 55803  87.9269 354.3046 0002090 132.2024 227.9287 13.19723044126206
ONEWEB-0640             
1 55804U 23029J   25285.18249223 -.00000188  00000+0 -54263-3 0  9992
2 55804  87.9049 339.1560 0001130 108.0244 252.1009 13.14503411126834
ONEWEB-0641             
1 55805U 23029K   25285.18208131 -.00000053  00000+0 -16572-3 0  9998
2 55805  87.9274 354.2956 0001864 106.7783 253.3554 13.19726997126209
ONEWEB-0642             
1 55806U 23029L   25285.25314872  .00000059  00000+0  11522-3 0  9991
2 55806  87.9261 354.3112 0002260 123.1826 236.9524 13.19723964126208
ONEWEB-0643             
1 55807U 23029M   25285.15236008  .00000216  00000+0  54681-3 0  9993
2 55807  87.9053 339.1464 0002377 113.2908 246.8473 13.14502891126807
ONEWEB-0644             
1 55808U 23029N   25285.24841142 -.00000010  00000+0 -57538-4 0  9994
2 55808  87.9263 354.3210 0002090 114.1096 246.0256 13.19727346126203
